start=new Date('2022-10-26T00:00:00.000Z').valueOf();
sats=[{"TLE_LINE1":"1 47356U 21005H   22298.83483387 -.00002646  00000-0 -15886-3 0  9991","SITE":"AFETR","MEAN_MOTION":"15.06389519","CENTER_NAME":"EARTH","NORAD_CAT_ID":"47356","LAUNCH_DATE":"2021-01-20","SEMIMAJOR_AXIS":"6925.381","RA_OF_ASC_NODE":"157.1408","COUNTRY_CODE":"US","RCS_SIZE":"LARGE","BSTAR":"-0.00015886000000","APOAPSIS":"548.258","REF_FRAME":"TEME","GP_ID":"216153469","PERIAPSIS":"546.233","MEAN_MOTION_DDOT":"0.0000000000000","OBJECT_TYPE":"PAYLOAD","EPHEMERIS_TYPE":"0","ECCENTRICITY":"0.00014620","MEAN_MOTION_DOT":"-0.00002646","ELEMENT_SET_NO":"999","TIME_SYSTEM":"UTC","ARG_OF_PERICENTER":"109.0080","TLE_LINE2":"2 47356  53.0541 157.1408 0001462 109.0080 251.1067 15.06389519 97940","PERIOD":"95.593","INCLINATION":"53.0541","MEAN_ANOMALY":"251.1067","DECAY_DATE":null,"OBJECT_NAME":"STARLINK-2049","CLASSIFICATION_TYPE":"U","REV_AT_EPOCH":"9794","EPOCH":"2022-10-25T20:02:09.646368","FILE":"3633327","MEAN_ELEMENT_THEORY":"SGP4","OBJECT_ID":"2021-005H"},{"EPOCH":"2022-10-25T20:14:05.356320","REV_AT_EPOCH":"9752","CLASSIFICATION_TYPE":"U","OBJECT_NAME":"STARLINK-2050","DECAY_DATE":null,"OBJECT_ID":"2021-005J","MEAN_ELEMENT_THEORY":"SGP4","FILE":"3633327","ELEMENT_SET_NO":"999","TIME_SYSTEM":"UTC","MEAN_MOTION_DOT":"-0.00001213","MEAN_ANOMALY":"272.5210","INCLINATION":"53.0545","TLE_LINE2":"2 47357  53.0545 187.1123 0001297  87.5927 272.5210 15.06391785 97527","PERIOD":"95.593","ARG_OF_PERICENTER":"87.5927","PERIAPSIS":"546.341","APOAPSIS":"548.137","REF_FRAME":"TEME","GP_ID":"216153721","RCS_SIZE":"LARGE","BSTAR":"-0.00006259600000","OBJECT_TYPE":"PAYLOAD","EPHEMERIS_TYPE":"0","ECCENTRICITY":"0.00012970","MEAN_MOTION_DDOT":"0.0000000000000","NORAD_CAT_ID":"47357","LAUNCH_DATE":"2021-01-20","SITE":"AFETR","TLE_LINE1":"1 47357U 21005J   22298.84311755 -.00001213  00000-0 -62596-4 0  9992","CENTER_NAME":"EARTH","MEAN_MOTION":"15.06391785","RA_OF_ASC_NODE":"187.1123","COUNTRY_CODE":"US","SEMIMAJOR_AXIS":"6925.374"},{"TIME_SYSTEM":"UTC","ELEMENT_SET_NO":"999","MEAN_MOTION_DOT":"-0.00000746","PERIOD":"95.593","TLE_LINE2":"2 47358  53.0546 157.1010 0001354 105.7313 254.3826 15.06387167 97943","MEAN_ANOMALY":"254.3826","INCLINATION":"53.0546","ARG_OF_PERICENTER":"105.7313","REV_AT_EPOCH":"9794","EPOCH":"2022-10-25T20:16:42.653568","DECAY_DATE":null,"OBJECT_NAME":"STARLINK-2055","CLASSIFICATION_TYPE":"U","OBJECT_ID":"2021-005K","FILE":"3633327","MEAN_ELEMENT_THEORY":"SGP4","LAUNCH_DATE":"2021-01-20","NORAD_CAT_ID":"47358","MEAN_MOTION":"15.06387167","CENTER_NAME":"EARTH","SITE":"AFETR","TLE_LINE1":"1 47358U 21005K   22298.84493812 -.00000746  00000-0 -31215-4 0  9992","SEMIMAJOR_AXIS":"6925.388","COUNTRY_CODE":"US","RA_OF_ASC_NODE":"157.1010","REF_FRAME":"TEME","GP_ID":"216153952","APOAPSIS":"548.191","PERIAPSIS":"546.315","RCS_SIZE":"LARGE","BSTAR":"-0.00003121500000","MEAN_MOTION_DDOT":"0.0000000000000","ECCENTRICITY":"0.00013540","OBJECT_TYPE":"PAYLOAD","EPHEMERIS_TYPE":"0"},{"EPOCH":"2022-10-25T20:33:20.470752","REV_AT_EPOCH":"9759","CLASSIFICATION_TYPE":"U","OBJECT_NAME":"STARLINK-2069","DECAY_DATE":null,"OBJECT_ID":"2021-005L","MEAN_ELEMENT_THEORY":"SGP4","FILE":"3633327","TIME_SYSTEM":"UTC","ELEMENT_SET_NO":"999","MEAN_MOTION_DOT":"-0.00000063","INCLINATION":"53.0542","MEAN_ANOMALY":"274.9984","PERIOD":"95.593","TLE_LINE2":"2 47359  53.0542 182.0414 0001427  85.1168 274.9984 15.06387112 97599","ARG_OF_PERICENTER":"85.1168","PERIAPSIS":"546.265","REF_FRAME":"TEME","GP_ID":"216153219","APOAPSIS":"548.241","RCS_SIZE":"LARGE","BSTAR":"0.00001469900000","ECCENTRICITY":"0.00014270","EPHEMERIS_TYPE":"0","OBJECT_TYPE":"PAYLOAD","MEAN_MOTION_DDOT":"0.0000000000000","LAUNCH_DATE":"2021-01-20","NORAD_CAT_ID":"47359","MEAN_MOTION":"15.06387112","CENTER_NAME":"EARTH","TLE_LINE1":"1 47359U 21005L   22298.85648693 -.00000063  00000-0  14699-4 0  9991","SITE":"AFETR","COUNTRY_CODE":"US","RA_OF_ASC_NODE":"182.0414","SEMIMAJOR_AXIS":"6925.388"},{"REV_AT_EPOCH":"9802","EPOCH":"2022-10-25T20:42:38.136960","DECAY_DATE":null,"OBJECT_NAME":"STARLINK-2070","CLASSIFICATION_TYPE":"U","OBJECT_ID":"2021-005M","FILE":"3633327","MEAN_ELEMENT_THEORY":"SGP4","TIME_SYSTEM":"UTC","ELEMENT_SET_NO":"999","MEAN_MOTION_DOT":"-0.00001242","PERIOD":"95.593","TLE_LINE2":"2 47360  53.0541 152.0232 0001483 101.4525 258.6630 15.06382189 98021","MEAN_ANOMALY":"258.6630","INCLINATION":"53.0541","ARG_OF_PERICENTER":"101.4525","REF_FRAME":"TEME","GP_ID":"216152970","APOAPSIS":"548.295","PERIAPSIS":"546.241","BSTAR":"-0.00006449900000","RCS_SIZE":"LARGE","MEAN_MOTION_DDOT":"0.0000000000000","ECCENTRICITY":"0.00014830","EPHEMERIS_TYPE":"0","OBJECT_TYPE":"PAYLOAD","LAUNCH_DATE":"2021-01-20","NORAD_CAT_ID":"47360","CENTER_NAME":"EARTH","MEAN_MOTION":"15.06382189","TLE_LINE1":"1 47360U 21005M   22298.86294140 -.00001242  00000-0 -64499-4 0  9992","SITE":"AFETR","SEMIMAJOR_AXIS":"6925.403","COUNTRY_CODE":"US","RA_OF_ASC_NODE":"152.0232"},{"SEMIMAJOR_AXIS":"6925.377","COUNTRY_CODE":"US","RA_OF_ASC_NODE":"157.0692","MEAN_MOTION":"15.06390816","CENTER_NAME":"EARTH","SITE":"AFETR","TLE_LINE1":"1 47361U 21005N   22298.85326301  .00007519  00000-0  52329-3 0  9996","LAUNCH_DATE":"2021-01-20","NORAD_CAT_ID":"47361","MEAN_MOTION_DDOT":"0.0000000000000","ECCENTRICITY":"0.00014960","OBJECT_TYPE":"PAYLOAD","EPHEMERIS_TYPE":"0","RCS_SIZE":"LARGE","BSTAR":"0.00052329000000","GP_ID":"216154221","REF_FRAME":"TEME","APOAPSIS":"548.278","PERIAPSIS":"546.206","ARG_OF_PERICENTER":"114.6737","PERIOD":"95.593","TLE_LINE2":"2 47361  53.0528 157.0692 0001496 114.6737 245.4408 15.06390816 97940","INCLINATION":"53.0528","MEAN_ANOMALY":"245.4408","MEAN_MOTION_DOT":"0.00007519","TIME_SYSTEM":"UTC","ELEMENT_SET_NO":"999","FILE":"3633327","MEAN_ELEMENT_THEORY":"SGP4","OBJECT_ID":"2021-005N","OBJECT_NAME":"STARLINK-2071","DECAY_DATE":null,"CLASSIFICATION_TYPE":"U","REV_AT_EPOCH":"9794","EPOCH":"2022-10-25T20:28:41.924064"},{"ARG_OF_PERICENTER":"94.3786","MEAN_ANOMALY":"265.7371","INCLINATION":"53.0554","PERIOD":"95.593","TLE_LINE2":"2 47362  53.0554 187.1622 0001471  94.3786 265.7371 15.06393854 97521","MEAN_MOTION_DOT":"-0.00000721","TIME_SYSTEM":"UTC","ELEMENT_SET_NO":"999","MEAN_ELEMENT_THEORY":"SGP4","FILE":"3633327","OBJECT_ID":"2021-005P","CLASSIFICATION_TYPE":"U","OBJECT_NAME":"STARLINK-2076","DECAY_DATE":null,"EPOCH":"2022-10-25T19:58:10.270848","REV_AT_EPOCH":"9752","COUNTRY_CODE":"US","RA_OF_ASC_NODE":"187.1622","SEMIMAJOR_AXIS":"6925.367","MEAN_MOTION":"15.06393854","CENTER_NAME":"EARTH","TLE_LINE1":"1 47362U 21005P   22298.83206332 -.00000721  00000-0 -29529-4 0  9993","SITE":"AFETR","LAUNCH_DATE":"2021-01-20","NORAD_CAT_ID":"47362","ECCENTRICITY":"0.00014710","OBJECT_TYPE":"PAYLOAD","EPHEMERIS_TYPE":"0","MEAN_MOTION_DDOT":"0.0000000000000","BSTAR":"-0.00002952900000","RCS_SIZE":"LARGE","PERIAPSIS":"546.214","GP_ID":"216154452","REF_FRAME":"TEME","APOAPSIS":"548.251"},{"MEAN_ELEMENT_THEORY":"SGP4","FILE":"3633327","OBJECT_ID":"2021-005Q","CLASSIFICATION_TYPE":"U","DECAY_DATE":null,"OBJECT_NAME":"STARLINK-2077","EPOCH":"2022-10-25T20:03:26.937216","REV_AT_EPOCH":"9752","ARG_OF_PERICENTER":"83.6920","INCLINATION":"53.0553","MEAN_ANOMALY":"276.4211","PERIOD":"95.592","TLE_LINE2":"2 47363  53.0553 187.1245 0001253  83.6920 276.4211 15.06406365 97525","MEAN_MOTION_DOT":"-0.00001999","TIME_SYSTEM":"UTC","ELEMENT_SET_NO":"999","ECCENTRICITY":"0.00012530","OBJECT_TYPE":"PAYLOAD","EPHEMERIS_TYPE":"0","MEAN_MOTION_DDOT":"0.0000000000000","BSTAR":"-0.00011532000000","RCS_SIZE":"LARGE","PERIAPSIS":"546.326","REF_FRAME":"TEME","GP_ID":"216152720","APOAPSIS":"548.062","COUNTRY_CODE":"US","RA_OF_ASC_NODE":"187.1245","SEMIMAJOR_AXIS":"6925.329","MEAN_MOTION":"15.06406365","CENTER_NAME":"EARTH","SITE":"AFETR","TLE_LINE1":"1 47363U 21005Q   22298.83572844 -.00001999  00000-0 -11532-3 0  9990","LAUNCH_DATE":"2021-01-20","NORAD_CAT_ID":"47363"},{"TIME_SYSTEM":"UTC","ELEMENT_SET_NO":"999","MEAN_MOTION_DOT":"-0.00001012","PERIOD":"95.592","TLE_LINE2":"2 47366  53.0550 187.0317 0001262 105.1826 254.9303 15.06395401 97520","INCLINATION":"53.0550","MEAN_ANOMALY":"254.9303","ARG_OF_PERICENTER":"105.1826","REV_AT_EPOCH":"9752","EPOCH":"2022-10-25T20:40:37.621056","OBJECT_NAME":"STARLINK-2081","DECAY_DATE":null,"CLASSIFICATION_TYPE":"U","OBJECT_ID":"2021-005T","FILE":"3633327","MEAN_ELEMENT_THEORY":"SGP4","LAUNCH_DATE":"2021-01-20","NORAD_CAT_ID":"47366","MEAN_MOTION":"15.06395401","CENTER_NAME":"EARTH","SITE":"AFETR","TLE_LINE1":"1 47366U 21005T   22298.86154654 -.00001012  00000-0 -49078-4 0  9994","SEMIMAJOR_AXIS":"6925.363","COUNTRY_CODE":"US","RA_OF_ASC_NODE":"187.0317","REF_FRAME":"TEME","GP_ID":"216153470","APOAPSIS":"548.102","PERIAPSIS":"546.354","RCS_SIZE":"LARGE","BSTAR":"-0.00004907800000","MEAN_MOTION_DDOT":"0.0000000000000","ECCENTRICITY":"0.00012620","OBJECT_TYPE":"PAYLOAD","EPHEMERIS_TYPE":"0"},{"ARG_OF_PERICENTER":"95.4751","TLE_LINE2":"2 47367  53.0536 187.1915 0001356  95.4751 264.6392 15.06396060 97520","PERIOD":"95.592","INCLINATION":"53.0536","MEAN_ANOMALY":"264.6392","MEAN_MOTION_DOT":"-0.00000547","ELEMENT_SET_NO":"999","TIME_SYSTEM":"UTC","FILE":"3633327","MEAN_ELEMENT_THEORY":"SGP4","OBJECT_ID":"2021-005U","OBJECT_NAME":"STARLINK-2082","DECAY_DATE":null,"CLASSIFICATION_TYPE":"U","REV_AT_EPOCH":"9752","EPOCH":"2022-10-25T19:42:14.416416","SEMIMAJOR_AXIS":"6925.361","RA_OF_ASC_NODE":"187.1915","COUNTRY_CODE":"US","TLE_LINE1":"1 47367U 21005U   22298.82100019 -.00000547  00000-0 -17811-4 0  9999","SITE":"AFETR","MEAN_MOTION":"15.06396060","CENTER_NAME":"EARTH","NORAD_CAT_ID":"47367","LAUNCH_DATE":"2021-01-20","MEAN_MOTION_DDOT":"0.0000000000000","OBJECT_TYPE":"PAYLOAD","EPHEMERIS_TYPE":"0","ECCENTRICITY":"0.00013560","RCS_SIZE":"LARGE","BSTAR":"-0.00001781100000","APOAPSIS":"548.165","REF_FRAME":"TEME","GP_ID":"216153722","PERIAPSIS":"546.287"}];
